satname,norad_id,inclination_deg,eccentricity,mean_motion_rev_per_day,perigee_km,apogee_km,l1,l2
STARLINK-1582,46043,53.161,0.0001394,15.30189568,474.29085604735974,476.2015792884449,1 46043U 20055S   26086.85674890 -.00006276  00000+0 -19999-3 0  9990,2 46043  53.1610  42.3104 0001394  87.0207 273.0953 15.30189568311662
STARLINK-1591,46045,53.161,0.0001483,15.30233274,474.09938367473296,476.1320584317964,1 46045U 20055U   26086.16461703  .00011958  00000+0  41479-3 0  9992,2 46045  53.1610  45.5350 0001483  93.7976 266.3194 15.30233274311541
STARLINK-1524,46047,53.1632,0.0002066,15.30198147,473.80469846829874,476.63650582950595,1 46047U 20055W   26086.55069072  .00000474  00000+0  28153-4 0  9996,2 46047  53.1632  30.8721 0002066  90.4287 269.6951 15.30198147311808
STARLINK-1527,46048,53.1617,0.0001118,15.30185541,474.49203213899636,476.02445131504646,1 46048U 20055X   26086.55703118 -.00002372  00000+0 -68021-4 0  9992,2 46048  53.1617  30.9468 0001118  83.9561 276.1567 15.30185541311787
STARLINK-1540,46051,53.1621,0.0001552,15.30194047,474.16920106211455,476.29648706171156,1 46051U 20055AA  26086.58017388  .00002278  00000+0  89020-4 0  9991,2 46051  53.1621  30.7454 0001552  78.2216 281.8959 15.30194047311829
STARLINK-1541,46052,53.162,0.0002355,15.30198982,473.6041438573475,476.8320741136804,1 46052U 20055AB  26086.83091034 -.00000336  00000+0  81530-6 0  9994,2 46052  53.1620  29.6209 0002355  86.0598 274.0672 15.30198982311824
STARLINK-1543,46053,53.1624,0.0002236,15.3019095,473.7096756564324,476.774506786026,1 46053U 20055AC  26086.83724095  .00001854  00000+0  74761-4 0  9996,2 46053  53.1624  29.6172 0002236  66.8860 293.2376 15.30190950311858
STARLINK-1548,46054,53.1623,0.0001297,15.30222468,474.2591137795125,476.036855904581,1 46054U 20055AD  26086.12613449  .00002687  00000+0  10276-3 0  9994,2 46054  53.1623  32.9211 0001297  80.0029 280.1118 15.30222468311747
STARLINK-1554,46055,53.1617,0.0001404,15.30219303,474.19523220794326,476.11963728522096,1 46055U 20055AE  26086.12405411  .00004014  00000+0  14749-3 0  9998,2 46055  53.1617  33.0573 0001404  90.8875 269.2287 15.30219303311741
STARLINK-1564,46058,53.1611,0.0001464,15.30194695,474.2275761769406,476.2342423007658,1 46058U 20055AH  26086.57920633  .00003280  00000+0  12285-3 0  9995,2 46058  53.1611  31.2761 0001464  73.7568 286.3594 15.30194695311806
STARLINK-1570,46059,53.1622,0.0001109,15.30191915,474.4791704566087,475.99924929995996,1 46059U 20055AJ  26086.54331620 -.00004216  00000+0 -13033-3 0  9999,2 46059  53.1622  30.9804 0001109  91.8075 268.3053 15.30191915311760
STARLINK-1572,46060,53.1621,0.0002113,15.30206508,473.7475285869068,476.6437469596294,1 46060U 20055AK  26086.56020442 -.00004526  00000+0 -14074-3 0  9990,2 46060  53.1621  31.1095 0002113  80.1897 279.9342 15.30206508311770
STARLINK-1573,46061,53.1601,0.0001327,15.30219778,474.24658452909534,476.06544849567763,1 46061U 20055AL  26086.07030500  .00009434  00000+0  33003-3 0  9997,2 46061  53.1601  33.1281 0001327  67.0688 293.0453 15.30219778311735
STARLINK-1577,46063,53.1627,9.46e-05,15.30196317,474.5777380694526,475.8743943615791,1 46063U 20055AN  26086.55384067  .00002027  00000+0  80540-4 0  9992,2 46063  53.1627  30.8574 0000946  92.2062 267.9047 15.30196317311806
STARLINK-1583,46064,53.1615,0.0001309,15.3020972,474.28894741808654,476.083147391897,1 46064U 20055AP  26086.85092203  .00004077  00000+0  14965-3 0  9998,2 46064  53.1615  29.5110 0001309  97.8496 262.2654 15.30209720311840
STARLINK-1525,46066,53.0566,0.0001574,15.30168739,474.2296784119317,476.38714302722656,1 46066U 20055AR  26086.86133398  .00068558  00000+0  23077-2 0  9999,2 46066  53.0566  12.6993 0001574 132.2089 227.9044 15.30168739312075
STARLINK-1536,46070,53.0577,0.0001255,15.06748926,545.2733593227358,547.0113534411876,1 46070U 20055AV  26086.79609803  .00044379  00000+0  29517-2 0  9995,2 46070  53.0577  15.3313 0001255  91.3874 268.7259 15.06748926312044
STARLINK-1542,46073,53.0565,0.000181,15.06395028,545.9733055969355,548.4802872912478,1 46073U 20055AY  26086.52372097  .00000309  00000+0  39629-4 0  9993,2 46073  53.0565  16.5589 0001810  82.9842 277.1352 15.06395028311992
STARLINK-1549,46074,53.0564,0.000217,15.06396376,545.7198619512883,548.7254680458973,1 46074U 20055AZ  26086.50895263 -.00002538  00000+0 -15154-3 0  9991,2 46074  53.0564  16.6245 0002170  86.6673 273.4565 15.06396376311986
STARLINK-1551,46075,53.0561,0.000207,15.06400282,545.7771466764434,548.6442406216138,1 46075U 20055BA  26086.80015635 -.00000313  00000+0 -21091-5 0  9990,2 46075  53.0561  15.3172 0002070  86.2921 273.8305 15.06400282312035
STARLINK-1552,46076,53.0562,0.0001675,15.06394217,546.0692832048289,548.3892809093186,1 46076U 20055BB  26086.82595529 -.00001531  00000+0 -83921-4 0  9990,2 46076  53.0562  15.2025 0001675  97.9147 262.2032 15.06394217312020
STARLINK-1559,46077,53.0281,0.00042,15.31302798,469.0472639079999,474.80131539130616,1 46077U 20055BC  26086.71438412  .00051116  00000+0  16678-2 0  9991,2 46077  53.0281 349.9259 0004200 102.3159 257.8311 15.31302798312342
STARLINK-1566,46079,53.0555,0.0001559,15.06415045,546.0857929123486,548.2451022154983,1 46079U 20055BE  26086.51263498  .00001337  00000+0  10861-3 0  9990,2 46079  53.0555  16.6082 0001559  76.6094 283.5069 15.06415045311993
STARLINK-1568,46080,53.0612,0.0005598,15.47892666,419.0845688844438,426.69900071190386,1 46080U 20055BF  26086.83855897  .00033008  00000+0  62902-3 0  9990,2 46080  53.0612 306.2713 0005598 175.3425 184.7635 15.47892666313008
STARLINK-1578,46082,53.0567,0.0001547,15.06403537,546.1293678190041,548.2720673088179,1 46082U 20055BH  26086.52738781  .00000712  00000+0  66657-4 0  9998,2 46082  53.0567  16.5435 0001547  86.2864 273.8301 15.06403537311994
STARLINK-1579,46083,53.056,0.0002116,15.06399619,545.7473216467033,548.6781296505978,1 46083U 20055BJ  26086.82869217  .00000660  00000+0  63251-4 0  9990,2 46083  53.0560  15.1794 0002116  92.4028 267.7203 15.06399619312039
STARLINK-1585,46117,53.0357,0.0007342,15.96802381,278.40613862724695,288.18778825916706,1 46117U 20057A   26086.91667824  .00518361  12302-3  11851-2 0  9991,2 46117  53.0357 154.2507 0007342  10.8067 253.7108 15.96802381  6001
STARLINK-1593,46119,53.0407,0.000454,15.81338636,323.6101587228186,329.6981090723966,1 46119U 20057C   26086.83335647  .00177954  00000+0  86734-3 0  9999,2 46119  53.0407 179.6174 0004540 353.0453 267.8440 15.81338636  5856
